{
    "links": {
        "self": "http://www.neowsapp.com/rest/v1/neo/3781449?api_key=iIulBulltgU6a56xZRHN4H3l9WmuAYTsLGpBGhQ2"
    },
    "id": "3781449",
    "neo_reference_id": "3781449",
    "name": "(2017 RF15)",
    "designation": "2017 RF15",
    "nasa_jpl_url": "http://ssd.jpl.nasa.gov/sbdb.cgi?sstr=3781449",
    "absolute_magnitude_h": 22.2,
    "estimated_diameter": {
        "kilometers": {
            "estimated_diameter_min": 0.096506147,
            "estimated_diameter_max": 0.2157943048
        },
        "meters": {
            "estimated_diameter_min": 96.5061469579,
            "estimated_diameter_max": 215.7943048444
        },
        "miles": {
            "estimated_diameter_min": 0.059966121,
            "estimated_diameter_max": 0.134088323
        },
        "feet": {
            "estimated_diameter_min": 316.6212271853,
            "estimated_diameter_max": 707.9865871058
        }
    },
    "is_potentially_hazardous_asteroid": false,
    "close_approach_data": [
        {
            "close_approach_date": "2017-08-07",
            "close_approach_date_full": "2017-Aug-07 09:46",
            "epoch_date_close_approach": 1502099160000,
            "relative_velocity": {
                "kilometers_per_second": "7.1941571174",
                "kilometers_per_hour": "25898.9656225041",
                "miles_per_hour": "16092.6100558276"
            },
            "miss_distance": {
                "astronomical": "0.2121523146",
                "lunar": "82.5272503794",
                "kilometers": "31737534.379729902",
                "miles": "19720789.3984085676"
            },
            "orbiting_body": "Earth"
        }
    ],
    "orbital_data": {
        "orbit_id": "4",
        "orbit_determination_date": "2017-10-26 06:19:22",
        "first_observation_date": "2017-09-14",
        "last_observation_date": "2017-10-25",
        "data_arc_in_days": 41,
        "observations_used": 25,
        "orbit_uncertainty": "7",
        "minimum_orbit_intersection": ".154245",
        "jupiter_tisserand_invariant": "3.567",
        "epoch_osculation": "2459000.5",
        "eccentricity": ".4574462296998987",
        "semi_major_axis": "2.137281412053214",
        "inclination": "6.589219767457128",
        "ascending_node_longitude": "332.1422815365586",
        "orbital_period": "1141.276802548561",
        "perihelion_distance": "1.159590088301796",
        "perihelion_argument": "332.2560239510483",
        "aphelion_distance": "3.114972735804632",
        "perihelion_time": "2459111.578376999377",
        "mean_anomaly": "324.9618605841466",
        "mean_motion": ".3154361844524411",
        "equinox": "J2000",
        "orbit_class": {
            "orbit_class_type": "AMO",
            "orbit_class_description": "Near-Earth asteroid orbits similar to that of 1221 Amor",
            "orbit_class_range": "1.017 AU < q (perihelion) < 1.3 AU"
        }
    },
    "is_sentry_object": false
}